NORAD_CAT_ID,OBJECT_NAME,OBJECT_TYPE,EPOCH,MEAN_MOTION,ECCENTRICITY,INCLINATION,RA_OF_ASC_NODE,ARG_OF_PERICENTER,MEAN_ANOMALY,BSTAR,MEAN_MOTION_DOT,MEAN_MOTION_DDOT,TLE_LINE0,TLE_LINE1,TLE_LINE2,SEMIMAJOR_AXIS,PERIOD,APOGEE,PERIGEE,DECAYED
53718.0,STARLINK-4695,PAYLOAD,2024-01-10 19:07:30,15.08837615,0.0001372,53.2162,195.862,92.5118,267.6031,2.7716e-05,1.53e-06,0.0,0 STARLINK-4695,1 53718U 22107U   24010.79688163  .00000153  00000-0  27716-4 0  9997,2 53718  53.2162 195.8620 0001372  92.5118 267.6031 15.08837615 74858,6917.888,95.438,540.702,538.804,0.0
53718.0,STARLINK-4695,PAYLOAD,2024-01-11 22:09:03,15.08842241,0.0001291,53.2157,190.806,97.7321,262.3817,4.9826e-05,5.05e-06,0.0,0 STARLINK-4695,1 53718U 22107U   24011.92295841  .00000505  00000-0  49826-4 0  9997,2 53718  53.2157 190.8060 0001291  97.7321 262.3817 15.08842241 75472,6917.874,95.437,540.632,538.845,0.0
53718.0,STARLINK-4695,PAYLOAD,2024-01-12 17:13:42,15.08833753,0.0001281,53.2161,187.2358,99.9265,260.1872,2.2632e-05,7.2e-07,0.0,0 STARLINK-4695,1 53718U 22107U   24012.71784733  .00000072  00000-0  22632-4 0  9993,2 53718  53.2161 187.2358 0001281  99.9265 260.1872 15.08833753 75146,6917.899,95.438,540.651,538.878,0.0
53718.0,STARLINK-4695,PAYLOAD,2024-01-12 20:24:28,15.08834894,0.0001273,53.2162,186.641,94.6613,265.4525,2.887e-05,1.72e-06,0.0,0 STARLINK-4695,1 53718U 22107U   24012.85032700  .00000172  00000-0  28870-4 0  9999,2 53718  53.2162 186.6410 0001273  94.6613 265.4525 15.08834894 75611,6917.896,95.438,540.642,538.88,0.0
53718.0,STARLINK-4695,PAYLOAD,2024-01-13 18:39:52,15.08840016,0.0001286,53.2166,182.478,83.8551,276.2588,5.7221e-05,6.23e-06,0.0,0 STARLINK-4695,1 53718U 22107U   24013.77768668  .00000623  00000-0  57221-4 0  9993,2 53718  53.2166 182.4780 0001286  83.8551 276.2588 15.08840016 75302,6917.88,95.438,540.635,538.856,0.0
53718.0,STARLINK-4695,PAYLOAD,2024-01-14 13:44:29,15.08839302,0.0001245,53.2157,178.9134,78.5473,281.5659,0.00010312,1.354e-05,0.0,0 STARLINK-4695,1 53718U 22107U   24014.57256808  .00001354  00000-0  10312-3 0  9991,2 53718  53.2157 178.9134 0001245  78.5473 281.5659 15.08839302 75870,6917.883,95.438,540.609,538.886,0.0
53718.0,STARLINK-4695,PAYLOAD,2024-01-14 18:30:39,15.08843768,0.000128,53.2158,178.0207,79.3548,280.7589,0.00014151,1.965e-05,0.0,0 STARLINK-4695,1 53718U 22107U   24014.77128477  .00001965  00000-0  14151-3 0  9996,2 53718  53.2158 178.0207 0001280  79.3548 280.7589 15.08843768 75902,6917.869,95.437,540.619,538.848,0.0
53718.0,STARLINK-4695,PAYLOAD,2024-01-15 10:24:30,15.08844453,0.0001281,53.2155,175.0475,79.9812,280.1325,8.7814e-05,1.11e-05,0.0,0 STARLINK-4695,1 53718U 22107U   24015.43368584  .00001110  00000-0  87814-4 0  9994,2 53718  53.2155 175.0475 0001281  79.9812 280.1325 15.08844453 75559,6917.867,95.437,540.618,538.846,0.0
53718.0,STARLINK-4695,PAYLOAD,2024-01-15 13:35:16,15.08845187,0.0001244,53.2151,174.4529,92.7073,267.4061,0.00011018,1.466e-05,0.0,0 STARLINK-4695,1 53718U 22107U   24015.56616360  .00001466  00000-0  11018-3 0  9992,2 53718  53.2151 174.4529 0001244  92.7073 267.4061 15.08845187 76022,6917.865,95.437,540.59,538.869,0.0
53718.0,STARLINK-4695,PAYLOAD,2024-01-15 16:46:02,15.08848894,0.0001265,53.2153,173.8581,81.3329,278.7806,9.1786e-05,1.174e-05,0.0,0 STARLINK-4695,1 53718U 22107U   24015.69864202  .00001174  00000-0  91786-4 0  9993,2 53718  53.2153 173.8581 0001265  81.3329 278.7806 15.08848894 76048,6917.853,95.437,540.593,538.843,0.0
53718.0,STARLINK-4695,PAYLOAD,2024-01-16 10:15:17,15.08836387,0.0001525,53.2144,170.5884,74.7754,285.3407,9.9947e-05,1.303e-05,0.0,0 STARLINK-4695,1 53718U 22107U   24016.42728871  .00001303  00000-0  99947-4 0  9997,2 53718  53.2144 170.5884 0001525  74.7754 285.3407 15.08836387 75702,6917.891,95.438,540.811,538.701,0.0
53718.0,STARLINK-4695,PAYLOAD,2024-01-16 13:26:04,15.08838494,0.0001243,53.2149,169.993,83.2589,276.8545,2.9386e-05,1.8e-06,0.0,0 STARLINK-4695,1 53718U 22107U   24016.55976873  .00000180  00000-0  29386-4 0  9990,2 53718  53.2149 169.9930 0001243  83.2589 276.8545 15.08838494 76170,6917.885,95.438,540.61,538.89,0.0
53718.0,STARLINK-4695,PAYLOAD,2024-01-16 16:36:50,15.08839697,0.0001337,53.215,169.3986,74.8068,285.3072,1.6769e-05,-2.1e-07,0.0,0 STARLINK-4695,1 53718U 22107U   24016.69224853 -.00000021  00000-0  16769-4 0  9995,2 53718  53.2150 169.3986 0001337  74.8068 285.3072 15.08839697 76197,6917.881,95.438,540.671,538.821,0.0
53718.0,STARLINK-4695,PAYLOAD,2024-01-17 14:52:14,15.08841135,0.0001281,53.2149,165.2357,76.9687,283.1448,3.1995e-05,2.21e-06,0.0,0 STARLINK-4695,1 53718U 22107U   24017.61960649  .00000221  00000-0  31995-4 0  9997,2 53718  53.2149 165.2357 0001281  76.9687 283.1448 15.08841135 76339,6917.877,95.437,540.628,538.856,0.0
53718.0,STARLINK-4695,PAYLOAD,2024-01-17 16:27:36,15.08863798,0.0001585,53.2157,164.9366,106.8373,253.2794,-0.00026337,-4.48e-05,0.0,0 STARLINK-4695,1 53718U 22107U   24017.68583882 -.00004480  00000-0 -26337-3 0  9990,2 53718  53.2157 164.9366 0001585 106.8373 253.2794 15.08863798 75897,6917.808,95.436,540.769,538.576,0.0
53718.0,STARLINK-4695,PAYLOAD,2024-01-18 14:43:01,15.08836368,0.0001369,53.2169,160.7749,98.3615,261.7532,4.7453e-05,4.67e-06,0.0,0 STARLINK-4695,1 53718U 22107U   24018.61320955  .00000467  00000-0  47453-4 0  9996,2 53718  53.2169 160.7749 0001369  98.3615 261.7532 15.08836368 76486,6917.891,95.438,540.704,538.809,0.0
53718.0,STARLINK-4695,PAYLOAD,2024-01-18 16:18:24,15.0883852,0.0001441,53.2172,160.4777,102.5777,257.5376,6.705e-05,7.79e-06,0.0,0 STARLINK-4695,1 53718U 22107U   24018.67944760  .00000779  00000-0  67050-4 0  9999,2 53718  53.2172 160.4777 0001441 102.5777 257.5376 15.08838520 76049,6917.885,95.438,540.747,538.753,0.0
53718.0,STARLINK-4695,PAYLOAD,2024-01-19 14:33:48,15.08834975,0.0001309,53.2158,156.312,97.3568,262.7573,0.00014092,1.955e-05,0.0,0 STARLINK-4695,1 53718U 22107U   24019.60680813  .00001955  00000-0  14092-3 0  9993,2 53718  53.2158 156.3120 0001309  97.3568 262.7573 15.08834975 76633,6917.896,95.438,540.666,538.855,0.0
53718.0,STARLINK-4695,PAYLOAD,2024-01-20 08:03:03,15.08849681,0.0001276,53.2158,153.047,105.3949,254.7184,-0.00017462,-3.067e-05,0.0,0 STARLINK-4695,1 53718U 22107U   24020.33545476 -.00003067  00000-0 -17462-3 0  9992,2 53718  53.2158 153.0470 0001276 105.3949 254.7184 15.08849681 76292,6917.851,95.437,540.599,538.833,0.0
53718.0,STARLINK-4695,PAYLOAD,2024-01-20 12:49:13,15.08835236,0.0001239,53.2175,152.1527,79.4692,280.644,-3.4156e-05,-8.31e-06,0.0,0 STARLINK-4695,1 53718U 22107U   24020.53417899 -.00000831  00000-0 -34156-4 0  9997,2 53718  53.2175 152.1527 0001239  79.4692 280.6440 15.08835236 76776,6917.895,95.438,540.617,538.903,0.0
53718.0,STARLINK-4695,PAYLOAD,2024-01-20 15:59:59,15.0883882,0.0001325,53.2163,151.5557,72.9788,287.1349,-6.9192e-06,-3.98e-06,0.0,0 STARLINK-4695,1 53718U 22107U   24020.66665564 -.00000398  00000-0 -69192-5 0  9992,2 53718  53.2163 151.5557 0001325  72.9788 287.1349 15.08838820 76793,6917.884,95.438,540.666,538.832,0.0
53718.0,STARLINK-4695,PAYLOAD,2024-01-21 17:26:07,15.08855762,0.0001243,53.2167,146.7972,83.4115,276.7018,0.00015778,2.225e-05,0.0,0 STARLINK-4695,1 53718U 22107U   24021.72648086  .00002225  00000-0  15778-3 0  9998,2 53718  53.2167 146.7972 0001243  83.4115 276.7018 15.08855762 76504,6917.832,95.437,540.557,538.837,0.0
53718.0,STARLINK-4695,PAYLOAD,2024-01-22 10:55:23,15.08837456,0.0001265,53.2164,143.5269,81.8728,278.2408,6.6539e-05,7.71e-06,0.0,0 STARLINK-4695,1 53718U 22107U   24022.45513727  .00000771  00000-0  66539-4 0  9998,2 53718  53.2164 143.5269 0001265  81.8728 278.2408 15.08837456 76613,6917.888,95.438,540.628,538.878,0.0
53718.0,STARLINK-4695,PAYLOAD,2024-01-22 15:41:32,15.08844063,0.0001326,53.2165,142.6348,74.6082,285.5056,0.00012928,1.77e-05,0.0,0 STARLINK-4695,1 53718U 22107U   24022.65385270  .00001770  00000-0  12928-3 0  9992,2 53718  53.2165 142.6348 0001326  74.6082 285.5056 15.08844063 77098,6917.868,95.437,540.65,538.816,0.0
53718.0,STARLINK-4695,PAYLOAD,2024-01-23 13:56:56,15.08852481,0.0001598,53.2166,138.4722,63.4821,296.6334,4.2948e-05,3.96e-06,0.0,0 STARLINK-4695,1 53718U 22107U   24023.58120963  .00000396  00000-0  42948-4 0  9990,2 53718  53.2166 138.4722 0001598  63.4821 296.6334 15.08852481 77237,6917.842,95.437,540.813,538.602,0.0
53718.0,STARLINK-4695,PAYLOAD,2024-01-24 12:12:21,15.08839723,0.0001406,53.2165,134.3084,74.5878,285.5269,2.1325e-05,5.1e-07,0.0,0 STARLINK-4695,1 53718U 22107U   24024.50857792  .00000051  00000-0  21325-4 0  9994,2 53718  53.2165 134.3084 0001406  74.5878 285.5269 15.08839723 76928,6917.881,95.438,540.719,538.774,0.0
53718.0,STARLINK-4695,PAYLOAD,2024-01-24 13:47:44,15.08840203,0.0001415,53.2166,134.011,78.6554,281.4597,2.1039e-05,4.7e-07,0.0,0 STARLINK-4695,1 53718U 22107U   24024.57481756  .00000047  00000-0  21039-4 0  9991,2 53718  53.2166 134.0110 0001415  78.6554 281.4597 15.08840203 77387,6917.88,95.438,540.724,538.766,0.0
53718.0,STARLINK-4695,PAYLOAD,2024-01-25 13:38:31,15.08843774,0.0001538,53.2179,129.5496,100.2033,259.9133,-2.3675e-05,-6.65e-06,0.0,0 STARLINK-4695,1 53718U 22107U   24025.56841832 -.00000665  00000-0 -23675-4 0  9992,2 53718  53.2179 129.5496 0001538 100.2033 259.9133 15.08843774 77536,6917.869,95.437,540.798,538.67,0.0
53718.0,STARLINK-4695,PAYLOAD,2024-01-26 13:29:17,15.08846326,0.0001635,53.2181,125.0911,106.9257,253.1915,0.00021935,3.205e-05,0.0,0 STARLINK-4695,1 53718U 22107U   24026.56201183  .00003205  00000-0  21935-3 0  9999,2 53718  53.2181 125.0911 0001635 106.9257 253.1915 15.08846326 77687,6917.861,95.437,540.857,538.595,0.0
53718.0,STARLINK-4695,PAYLOAD,2024-01-27 11:44:43,15.08836069,0.0001632,53.2182,120.9294,109.6861,250.4307,3.2808e-05,2.34e-06,0.0,0 STARLINK-4695,1 53718U 22107U   24027.48938734  .00000234  00000-0  32808-4 0  9991,2 53718  53.2182 120.9294 0001632 109.6861 250.4307 15.08836069 77378,6917.892,95.438,540.886,538.628,0.0
